{
  "norad_id": 49729,
  "name": "STARLINK-3251",
  "history": [
    {
      "epoch": "2026-03-28T08:56:06.847008",
      "apogee_km": 540.7378120092744,
      "perigee_km": 538.7898694905371,
      "latitude_deg": 7.582046261619917,
      "longitude_deg": -91.35905888001435,
      "semi_major_axis_km": 6917.900840749906,
      "eccentricity": 0.00014079,
      "inclination_deg": 53.2169,
      "raan_deg": 75.1356,
      "arg_perigee_deg": 89.5545,
      "mean_anomaly_deg": 270.5609,
      "mean_motion_rev_day": 15.08833309
    },
    {
      "epoch": "2026-03-29T04:00:44.351136",
      "apogee_km": 540.7333813744171,
      "perigee_km": 538.7756180799934,
      "latitude_deg": 15.454277262498609,
      "longitude_deg": -15.05072096013464,
      "semi_major_axis_km": 6917.891499727205,
      "eccentricity": 0.0001415,
      "inclination_deg": 53.2169,
      "raan_deg": 71.5686,
      "arg_perigee_deg": 87.8,
      "mean_anomaly_deg": 272.3155,
      "mean_motion_rev_day": 15.08836365
    }
  ]
}